{
    "links": {
        "self": "http://www.neowsapp.com/rest/v1/neo/3696403?api_key=iIulBulltgU6a56xZRHN4H3l9WmuAYTsLGpBGhQ2"
    },
    "id": "3696403",
    "neo_reference_id": "3696403",
    "name": "(2014 WJ6)",
    "designation": "2014 WJ6",
    "nasa_jpl_url": "http://ssd.jpl.nasa.gov/sbdb.cgi?sstr=3696403",
    "absolute_magnitude_h": 27.1,
    "estimated_diameter": {
        "kilometers": {
            "estimated_diameter_min": 0.0101054342,
            "estimated_diameter_max": 0.0225964377
        },
        "meters": {
            "estimated_diameter_min": 10.1054341542,
            "estimated_diameter_max": 22.5964377109
        },
        "miles": {
            "estimated_diameter_min": 0.0062792237,
            "estimated_diameter_max": 0.0140407711
        },
        "feet": {
            "estimated_diameter_min": 33.1543125905,
            "estimated_diameter_max": 74.1352966996
        }
    },
    "is_potentially_hazardous_asteroid": false,
    "close_approach_data": [
        {
            "close_approach_date": "2014-11-15",
            "close_approach_date_full": "2014-Nov-15 16:12",
            "epoch_date_close_approach": 1416067920000,
            "relative_velocity": {
                "kilometers_per_second": "14.6458756264",
                "kilometers_per_hour": "52725.152255175",
                "miles_per_hour": "32761.359188778"
            },
            "miss_distance": {
                "astronomical": "0.0022260239",
                "lunar": "0.8659232971",
                "kilometers": "333008.434009093",
                "miles": "206921.8457997634"
            },
            "orbiting_body": "Earth"
        },
        {
            "close_approach_date": "2014-11-15",
            "close_approach_date_full": "2014-Nov-15 17:28",
            "epoch_date_close_approach": 1416072480000,
            "relative_velocity": {
                "kilometers_per_second": "15.588206809",
                "kilometers_per_hour": "56117.5445122214",
                "miles_per_hour": "34869.2598109411"
            },
            "miss_distance": {
                "astronomical": "0.0018077801",
                "lunar": "0.7032264589",
                "kilometers": "270440.052388387",
                "miles": "168043.6562662606"
            },
            "orbiting_body": "Moon"
        }
    ],
    "orbital_data": {
        "orbit_id": "4",
        "orbit_determination_date": "2017-04-06 08:37:27",
        "first_observation_date": "2014-11-17",
        "last_observation_date": "2014-11-19",
        "data_arc_in_days": 2,
        "observations_used": 36,
        "orbit_uncertainty": "7",
        "minimum_orbit_intersection": ".00222439",
        "jupiter_tisserand_invariant": "3.245",
        "epoch_osculation": "2459000.5",
        "eccentricity": ".6431356676468891",
        "semi_major_axis": "2.34055852537099",
        "inclination": "5.602085153524033",
        "ascending_node_longitude": "232.5169950783246",
        "orbital_period": "1307.909470489045",
        "perihelion_distance": ".8352618554899002",
        "perihelion_argument": "128.5567186058924",
        "aphelion_distance": "3.845855195252081",
        "perihelion_time": "2459563.874128590857",
        "mean_anomaly": "204.9321678075523",
        "mean_motion": ".2752484083362368",
        "equinox": "J2000",
        "orbit_class": {
            "orbit_class_type": "APO",
            "orbit_class_description": "Near-Earth asteroid orbits which cross the Earth’s orbit similar to that of 1862 Apollo",
            "orbit_class_range": "a (semi-major axis) > 1.0 AU; q (perihelion) < 1.017 AU"
        }
    },
    "is_sentry_object": false
}